FENGYUN 1C DEB          
1 29734U 99025Y   17345.60943397  .00000430  00000-0  80285-3 0  9994
2 29734  99.1421  19.9818 0639490 171.9343 342.5566 12.83316944509846
